{"spkid": "50720942", "covariance": {"data": [["5.842527169483472E-15", "-1.027820170745376E-14", "2.329377391088072E-12", "-4.857677737387829E-12", "7.918196666073754E-12", "5.879783365851278E-13"], ["-1.027820170745376E-14", "1.8081565433206E-14", "-4.097569678812477E-12", "8.549943339743091E-12", "-1.393376601196374E-11", "-1.034745131276211E-12"], ["2.329377391088072E-12", "-4.097569678812477E-12", "9.676112666564489E-10", "-1.772968845186016E-9", "3.033686904572855E-9", "2.288242276820629E-10"], ["-4.857677737387829E-12", "8.549943339743091E-12", "-1.772968845186016E-9", "9.400161561949469E-9", "-1.176459015479551E-8", "-9.854034219988134E-10"], ["7.918196666073754E-12", "-1.393376601196374E-11", "3.033686904572855E-9", "-1.176459015479551E-8", "1.577474360480226E-8", "1.286645322573301E-9"], ["5.879783365851278E-13", "-1.034745131276211E-12", "2.288242276820629E-10", "-9.854034219988134E-10", "1.286645322573301E-9", "1.099251298211128E-10"]], "elements": [{"label": "e", "sigma": 7.64364256718187e-08, "name": "e", "title": "eccentricity", "value": ".4425348476723313", "units": null}, {"label": "q", "value": ".9804033979821476", "title": "perihelion distance", "units": "au", "name": "q", "sigma": 1.34467711489435e-07}, {"label": "tp", "value": "2458067.725033089074", "title": "time of perihelion passage", "units": "TDB", "sigma": 3.11064505634514e-05, "name": "tp"}, {"label": "node", "sigma": 9.69544303368828e-05, "name": "om", "units": "deg", "value": "104.1371892081944", "title": "longitude of the ascending node"}, {"label": "peri", "name": "w", "sigma": 0.000125597546173491, "title": "argument of perihelion", "value": "191.7859657138321", "units": "deg"}, {"label": "i", "title": "inclination", "value": "3.216694839887628", "units": "deg", "sigma": 1.04845185784142e-05, "name": "i"}], "labels": ["e", "q", "tp", "node", "peri", "i"], "epoch": "2458395.5"}, "elements": [{"label": "e", "value": ".4418004190510386", "title": "eccentricity", "units": null, "sigma": "7.765E-8", "name": "e"}, {"label": "a", "value": "1.755338841103539", "title": "semi-major axis", "units": "au", "sigma": "2.7356E-9", "name": "a"}, {"label": "q", "name": "q", "sigma": "1.3679E-7", "units": "au", "title": "perihelion distance", "value": ".9798294055274308"}, {"units": "deg", "value": "3.232608924091927", "title": "inclination; angle with respect to x-y ecliptic plane", "sigma": "1.0482E-5", "name": "i", "label": "i"}, {"label": "node", "title": "longitude of the ascending node", "value": "103.9755719302568", "units": "deg", "sigma": "9.6103E-5", "name": "om"}, {"label": "peri", "sigma": ".00012473", "name": "w", "value": "192.1319868659325", "title": "argument of perihelion", "units": "deg"}, {"name": "ma", "sigma": "1.3482E-5", "title": "mean anomaly", "value": "245.5449897847477", "units": "deg", "label": "M"}, {"name": "tp", "sigma": "3.1744E-5", "title": "time of perihelion passage", "value": "2461470.567409510708", "units": "TDB", "label": "tp"}, {"sigma": "1.9857E-6", "name": "per", "units": "d", "value": "849.4540102788675", "title": "sidereal orbital period", "label": "period"}, {"title": "mean motion", "value": ".4238016368676811", "units": "deg/d", "name": "n", "sigma": "9.9069E-10", "label": "n"}, {"sigma": "3.9441E-9", "name": "ad", "value": "2.530848276679647", "title": "aphelion distance", "units": "au", "label": "Q"}], "epoch": "2461200.5"}